{"type": "FeatureCollection", "features": [ {"type": "Feature", "properties": {"norad_id": 43262, "name": "GAOFEN-1 04", "group": "resource", "lat": 57.915436162397725, "lon": 32.10513735337269, "alt_km": 634.2111171667138, "timestamp": "2025-12-13T08:49:15.351174+00:00", "meta": {"OBJECT_NAME": "GAOFEN-1 04", "OBJECT_ID": "2018-031D", "EPOCH": "2025-12-13T00:25:22.457856", "MEAN_MOTION": 14.76452636, "ECCENTRICITY": 0.00010726, "INCLINATION": 98.0804, "RA_OF_ASC_NODE": 44.8527, "ARG_OF_PERICENTER": 58.2836, "MEAN_ANOMALY": 301.8478, "EPHEMERIS_TYPE": 0, "CLASSIFICATION_TYPE": "U", "NORAD_CAT_ID": 43262, "ELEMENT_SET_NO": 999, "REV_AT_EPOCH": 41521, "BSTAR": 0.00028554478, "MEAN_MOTION_DOT": 1.935e-05, "MEAN_MOTION_DDOT": 0}, "tle": {"line1": "1 43262U 18031D   25347.01762104  .00001935  00000+0  28554-3 0  9996", "line2": "2 43262  98.0804  44.8527 0001072  58.2836 301.8478 14.76452636415218"}}, "geometry": {"type": "Point", "coordinates": [32.10513735337269, 57.915436162397725]}}, {"type": "Feature", "properties": {"norad_id": 43437, "name": "SENTINEL-3B", "group": "resource", "lat": 65.14975059884611, "lon": -108.32180239808308, "alt_km": 795.1719425759629, "timestamp": "2025-12-13T08:49:15.351184+00:00", "meta": {"OBJECT_NAME": "SENTINEL-3B", "OBJECT_ID": "2018-039A", "EPOCH": "2025-12-12T18:49:36.045408", "MEAN_MOTION": 14.26734123, "ECCENTRICITY": 0.0001597, "INCLINATION": 98.6269, "RA_OF_ASC_NODE": 51.9683, "ARG_OF_PERICENTER": 100.8249, "MEAN_ANOMALY": 259.3112, "EPHEMERIS_TYPE": 0, "CLASSIFICATION_TYPE": "U", "NORAD_CAT_ID": 43437, "ELEMENT_SET_NO": 999, "REV_AT_EPOCH": 39754, "BSTAR": 0.00011568823, "MEAN_MOTION_DOT": 2.36e-06, "MEAN_MOTION_DDOT": 0}, "tle": {"line1": "1 43437U 18039A   25346.78444497  .00000236  00000+0  11569-3 0  9994", "line2": "2 43437  98.6269  51.9683 0001597 100.8249 259.3112 14.26734123397545"}}, "geometry": {"type": "Point", "coordinates": [-108.32180239808308, 65.14975059884611]}}, {"type": "Feature", "properties": {"norad_id": 43461, "name": "GAOFEN-5 01", "group": "resource", "lat": 1.4309041313174893, "lon": 130.55796911295715, "alt_km": 695.2628821777407, "timestamp": "2025-12-13T08:49:15.351195+00:00", "meta": {"OBJECT_NAME": "GAOFEN-5 01", "OBJECT_ID": "2018-043A", "EPOCH": "2025-12-12T22:08:25.329696", "MEAN_MOTION": 14.60410348, "ECCENTRICITY": 9.449e-05, "INCLINATION": 98.4326, "RA_OF_ASC_NODE": 309.8929, "ARG_OF_PERICENTER": 339.5277, "MEAN_ANOMALY": 20.5885, "EPHEMERIS_TYPE": 0, "CLASSIFICATION_TYPE": "U", "NORAD_CAT_ID": 43461, "ELEMENT_SET_NO": 999, "REV_AT_EPOCH": 40450, "BSTAR": 0.00016796304, "MEAN_MOTION_DOT": 7.64e-06, "MEAN_MOTION_DDOT": 0}, "tle": {"line1": "1 43461U 18043A   25346.92251539  .00000764  00000+0  16796-3 0  9998", "line2": "2 43461  98.4326 309.8929 0000944 339.5277  20.5885 14.60410348404507"}}, "geometry": {"type": "Point", "coordinates": [130.55796911295715, 1.4309041313174893]}}, {"type": "Feature", "properties": {"norad_id": 43484, "name": "GAOFEN-6", "group": "resource", "lat": -30.199291824859454, "lon": -132.96477633835022, "alt_km": 654.0677188741938, "timestamp": "2025-12-13T08:49:15.351206+00:00", "meta": {"OBJECT_NAME": "GAOFEN-6", "OBJECT_ID": "2018-048A", "EPOCH": "2025-12-13T01:21:58.955040", "MEAN_MOTION": 14.76566449, "ECCENTRICITY": 0.00132037, "INCLINATION": 97.8028, "RA_OF_ASC_NODE": 51.3125, "ARG_OF_PERICENTER": 62.9512, "MEAN_ANOMALY": 297.3044, "EPHEMERIS_TYPE": 0, "CLASSIFICATION_TYPE": "U", "NORAD_CAT_ID": 43484, "ELEMENT_SET_NO": 999, "REV_AT_EPOCH": 40592, "BSTAR": 0.00015687439, "MEAN_MOTION_DOT": 1.046e-05, "MEAN_MOTION_DDOT": 0}, "tle": {"line1": "1 43484U 18048A   25347.05693235  .00001046  00000+0  15687-3 0  9998", "line2": "2 43484  97.8028  51.3125 0013203  62.9512 297.3044 14.76566449405921"}}, "geometry": {"type": "Point", "coordinates": [-132.96477633835022, -30.199291824859454]}}, {"type": "Feature", "properties": {"norad_id": 43585, "name": "GAOFEN-11 01", "group": "resource", "lat": -0.9179916831717058, "lon": -129.81940706874593, "alt_km": 424.0772506070525, "timestamp": "2025-12-13T08:49:15.351217+00:00", "meta": {"OBJECT_NAME": "GAOFEN-11 01", "OBJECT_ID": "2018-063A", "EPOCH": "2025-12-13T00:17:30.407136", "MEAN_MOTION": 15.49230549, "ECCENTRICITY": 0.00042665, "INCLINATION": 97.1559, "RA_OF_ASC_NODE": 49.9435, "ARG_OF_PERICENTER": 312.9432, "MEAN_ANOMALY": 47.1461, "EPHEMERIS_TYPE": 0, "CLASSIFICATION_TYPE": "U", "NORAD_CAT_ID": 43585, "ELEMENT_SET_NO": 999, "REV_AT_EPOCH": 41146, "BSTAR": 0.00044738394, "MEAN_MOTION_DOT": 0.00024361, "MEAN_MOTION_DDOT": 0}, "tle": {"line1": "1 43585U 18063A   25347.01215749  .00024361  00000+0  44738-3 0  9997", "line2": "2 43585  97.1559  49.9435 0004266 312.9432  47.1461 15.49230549411460"}}, "geometry": {"type": "Point", "coordinates": [-129.81940706874593, -0.9179916831717058]}}, {"type": "Feature", "properties": {"norad_id": 43613, "name": "ICESAT-2", "group": "resource", "lat": -49.764562683939424, "lon": 58.53435654638708, "alt_km": 488.1027339688617, "timestamp": "2025-12-13T08:49:15.351232+00:00", "meta": {"OBJECT_NAME": "ICESAT-2", "OBJECT_ID": "2018-070A", "EPOCH": "2025-12-12T23:57:40.605696", "MEAN_MOTION": 15.28245993, "ECCENTRICITY": 0.00022929, "INCLINATION": 92.0043, "RA_OF_ASC_NODE": 240.8069, "ARG_OF_PERICENTER": 139.7557, "MEAN_ANOMALY": 220.3863, "EPHEMERIS_TYPE": 0, "CLASSIFICATION_TYPE": "U", "NORAD_CAT_ID": 43613, "ELEMENT_SET_NO": 999, "REV_AT_EPOCH": 40402, "BSTAR": 0.00057911937, "MEAN_MOTION_DOT": 0.00015943, "MEAN_MOTION_DDOT": 0}, "tle": {"line1": "1 43613U 18070A   25346.99838664  .00015943  00000+0  57912-3 0  9994", "line2": "2 43613  92.0043 240.8069 0002292 139.7557 220.3863 15.28245993404020"}}, "geometry": {"type": "Point", "coordinates": [58.53435654638708, -49.764562683939424]}}, {"type": "Feature", "properties": {"norad_id": 43719, "name": "HYSIS", "group": "resource", "lat": -68.86749488641298, "lon": -151.02223621904716, "alt_km": 641.76914531083, "timestamp": "2025-12-13T08:49:15.351243+00:00", "meta": {"OBJECT_NAME": "HYSIS", "OBJECT_ID": "2018-096A", "EPOCH": "2025-12-13T01:11:44.860992", "MEAN_MOTION": 14.78645938, "ECCENTRICITY": 0.00013202, "INCLINATION": 98.0095, "RA_OF_ASC_NODE": 50.0254, "ARG_OF_PERICENTER": 58.176, "MEAN_ANOMALY": 301.958, "EPHEMERIS_TYPE": 0, "CLASSIFICATION_TYPE": "U", "NORAD_CAT_ID": 43719, "ELEMENT_SET_NO": 999, "REV_AT_EPOCH": 37991, "BSTAR": 0.0002386576, "MEAN_MOTION_DOT": 1.696e-05, "MEAN_MOTION_DDOT": 0}, "tle": {"line1": "1 43719U 18096A   25347.04982478  .00001696  00000+0  23866-3 0  9990", "line2": "2 43719  98.0095  50.0254 0001320  58.1760 301.9580 14.78645938379916"}}, "geometry": {"type": "Point", "coordinates": [-151.02223621904716, -68.86749488641298]}}, {"type": "Feature", "properties": {"norad_id": 43783, "name": "KAZSTSAT", "group": "resource", "lat": 6.620262237178183, "lon": -156.60318153038642, "alt_km": 574.7540660886834, "timestamp": "2025-12-13T08:49:15.351253+00:00", "meta": {"OBJECT_NAME": "KAZSTSAT", "OBJECT_ID": "2018-099AB", "EPOCH": "2025-12-13T00:02:31.659648", "MEAN_MOTION": 14.9935426, "ECCENTRICITY": 0.00059098, "INCLINATION": 97.4559, "RA_OF_ASC_NODE": 22.1758, "ARG_OF_PERICENTER": 329.1628, "MEAN_ANOMALY": 30.9248, "EPHEMERIS_TYPE": 0, "CLASSIFICATION_TYPE": "U", "NORAD_CAT_ID": 43783, "ELEMENT_SET_NO": 999, "REV_AT_EPOCH": 38340, "BSTAR": 0.00017483859, "MEAN_MOTION_DOT": 2.082e-05, "MEAN_MOTION_DDOT": 0}, "tle": {"line1": "1 43783U 18099AB  25347.00175532  .00002082  00000+0  17484-3 0  9994", "line2": "2 43783  97.4559  22.1758 0005909 329.1628  30.9248 14.99354260383402"}}, "geometry": {"type": "Point", "coordinates": [-156.60318153038642, 6.620262237178183]}}, {"type": "Feature", "properties": {"norad_id": 43831, "name": "SAUDISAT 5A", "group": "resource", "lat": -73.15659699181782, "lon": 72.72977625180475, "alt_km": 503.0142123004125, "timestamp": "2025-12-13T08:49:15.351264+00:00", "meta": {"OBJECT_NAME": "SAUDISAT 5A", "OBJECT_ID": "2018-102A", "EPOCH": "2025-12-12T23:42:14.623200", "MEAN_MOTION": 15.25662418, "ECCENTRICITY": 0.00117492, "INCLINATION": 97.3355, "RA_OF_ASC_NODE": 47.1738, "ARG_OF_PERICENTER": 75.5021, "MEAN_ANOMALY": 284.752, "EPHEMERIS_TYPE": 0, "CLASSIFICATION_TYPE": "U", "NORAD_CAT_ID": 43831, "ELEMENT_SET_NO": 999, "REV_AT_EPOCH": 38726, "BSTAR": 0.0003872994, "MEAN_MOTION_DOT": 9.809e-05, "MEAN_MOTION_DDOT": 0}, "tle": {"line1": "1 43831U 18102A   25346.98766925  .00009809  00000+0  38730-3 0  9992", "line2": "2 43831  97.3355  47.1738 0011749  75.5021 284.7520 15.25662418387269"}}, "geometry": {"type": "Point", "coordinates": [72.72977625180475, -73.15659699181782]}}, {"type": "Feature", "properties": {"norad_id": 43833, "name": "SAUDISAT 5B", "group": "resource", "lat": -21.72665475647001, "lon": 53.232301676514076, "alt_km": 494.3703162336833, "timestamp": "2025-12-13T08:49:15.351274+00:00", "meta": {"OBJECT_NAME": "SAUDISAT 5B", "OBJECT_ID": "2018-102C", "EPOCH": "2025-12-12T23:28:27.662880", "MEAN_MOTION": 15.26014556, "ECCENTRICITY": 0.00124691, "INCLINATION": 97.3449, "RA_OF_ASC_NODE": 49.9033, "ARG_OF_PERICENTER": 77.8405, "MEAN_ANOMALY": 282.423, "EPHEMERIS_TYPE": 0, "CLASSIFICATION_TYPE": "U", "NORAD_CAT_ID": 43833, "ELEMENT_SET_NO": 999, "REV_AT_EPOCH": 38737, "BSTAR": 0.00035825247, "MEAN_MOTION_DOT": 9.166e-05, "MEAN_MOTION_DDOT": 0}, "tle": {"line1": "1 43833U 18102C   25346.97809795  .00009166  00000+0  35825-3 0  9994", "line2": "2 43833  97.3449  49.9033 0012469  77.8405 282.4230 15.26014556387374"}}, "geometry": {"type": "Point", "coordinates": [53.232301676514076, -21.72665475647001]}}]}